{
    "links": {
        "self": "http://www.neowsapp.com/rest/v1/neo/3695292?api_key=iIulBulltgU6a56xZRHN4H3l9WmuAYTsLGpBGhQ2"
    },
    "id": "3695292",
    "neo_reference_id": "3695292",
    "name": "(2014 UJ175)",
    "designation": "2014 UJ175",
    "nasa_jpl_url": "http://ssd.jpl.nasa.gov/sbdb.cgi?sstr=3695292",
    "absolute_magnitude_h": 24.3,
    "estimated_diameter": {
        "kilometers": {
            "estimated_diameter_min": 0.0366906138,
            "estimated_diameter_max": 0.0820427065
        },
        "meters": {
            "estimated_diameter_min": 36.6906137531,
            "estimated_diameter_max": 82.0427064882
        },
        "miles": {
            "estimated_diameter_min": 0.0227984834,
            "estimated_diameter_max": 0.0509789586
        },
        "feet": {
            "estimated_diameter_min": 120.3760332259,
            "estimated_diameter_max": 269.1689931548
        }
    },
    "is_potentially_hazardous_asteroid": false,
    "close_approach_data": [
        {
            "close_approach_date": "2014-09-29",
            "close_approach_date_full": "2014-Sep-29 04:50",
            "epoch_date_close_approach": 1411966200000,
            "relative_velocity": {
                "kilometers_per_second": "3.4894279759",
                "kilometers_per_hour": "12561.9407133799",
                "miles_per_hour": "7805.5014393777"
            },
            "miss_distance": {
                "astronomical": "0.1497892503",
                "lunar": "58.2680183667",
                "kilometers": "22408152.793776861",
                "miles": "13923780.4917722418"
            },
            "orbiting_body": "Earth"
        },
        {
            "close_approach_date": "2033-09-28",
            "close_approach_date_full": "2033-Sep-28 07:04",
            "epoch_date_close_approach": 2011503840000,
            "relative_velocity": {
                "kilometers_per_second": "3.8938788255",
                "kilometers_per_hour": "14017.9637717444",
                "miles_per_hour": "8710.2175447264"
            },
            "miss_distance": {
                "astronomical": "0.138536984",
                "lunar": "53.890886776",
                "kilometers": "20724837.72262408",
                "miles": "12877817.008529104"
            },
            "orbiting_body": "Earth"
        }
    ],
    "orbital_data": {
        "orbit_id": "6",
        "orbit_determination_date": "2017-04-06 08:37:44",
        "first_observation_date": "2014-10-28",
        "last_observation_date": "2014-11-21",
        "data_arc_in_days": 24,
        "observations_used": 21,
        "orbit_uncertainty": "7",
        "minimum_orbit_intersection": ".139523",
        "jupiter_tisserand_invariant": "4.427",
        "epoch_osculation": "2459000.5",
        "eccentricity": ".2800392194463439",
        "semi_major_axis": "1.534412930606328",
        "inclination": "6.74328624352115",
        "ascending_node_longitude": "49.26608876822588",
        "orbital_period": "694.2434666062121",
        "perihelion_distance": "1.104717131210955",
        "perihelion_argument": "302.8644398146286",
        "aphelion_distance": "1.964108730001701",
        "perihelion_time": "2458995.318059004296",
        "mean_anomaly": "2.687095879450968",
        "mean_motion": ".5185500725845487",
        "equinox": "J2000",
        "orbit_class": {
            "orbit_class_type": "AMO",
            "orbit_class_description": "Near-Earth asteroid orbits similar to that of 1221 Amor",
            "orbit_class_range": "1.017 AU < q (perihelion) < 1.3 AU"
        }
    },
    "is_sentry_object": false
}